KUIPER-00053            
1 64513U 25134P   25221.09135863  .00032386  00000+0  89172-3 0  9992
2 64513  51.8780 105.8092 0001959 253.2690 106.8082 15.36863200  8418
KUIPER-00054            
1 64514U 25134Q   25221.87801843  .00061218  00000+0  16784-2 0  9991
2 64514  51.8760 102.0758 0002763 261.6182  98.4491 15.36702368  8471
KUIPER-00055            
1 64515U 25134R   25221.40299055  .00030426  00000+0  82533-3 0  9990
2 64515  51.8776 104.1519 0000662 209.1841 150.9109 15.37359326  8464
KUIPER-00056            
1 64516U 25134S   25221.88502929  .00043576  00000+0  12112-2 0  9995
2 64516  51.8734 102.1182 0003131 269.7720  90.2907 15.36426532  8077
KUIPER-00057            
1 64517U 25134T   25221.84880960  .00044542  00000+0  13077-2 0  9991
2 64517  51.8706 102.6019 0006586 278.7154  81.3086 15.34687574  8172
KUIPER-00058            
1 64518U 25134U   25221.89521917  .00030131  00000+0  84947-3 0  9995
2 64518  51.8717 102.1777 0004582 276.5716  83.4749 15.36156619  8076
KUIPER-00059            
1 64519U 25134V   25221.86057958  .00039876  00000+0  10808-2 0  9991
2 64519  51.8781 101.9638 0001422 193.6564 166.4384 15.37252568  8068
KUIPER-00060            
1 64520U 25134W   25221.86695100  .00059812  00000+0  16192-2 0  9994
2 64520  51.8768 102.0085 0002190 216.4934 143.5904 15.37106779  8078
