<?xml version="1.0" encoding="UTF-8"?>
<ndm xmlns:xsi="http://www.w3.org/2001/XMLSchema-instance" xsi:noNamespaceSchemaLocation="https://sanaregistry.org/r/ndmxml_unqualified/ndmxml-2.0.0-master-2.0.xsd">
<omm id="CCSDS_OMM_VERS" version="2.0">
<header><CREATION_DATE/><ORIGINATOR/></header><body><segment><metadata><OBJECT_NAME>KUIPER-00053</OBJECT_NAME><OBJECT_ID>2025-134P</OBJECT_ID><CENTER_NAME>EARTH</CENTER_NAME><REF_FRAME>TEME</REF_FRAME><TIME_SYSTEM>UTC</TIME_SYSTEM><MEAN_ELEMENT_THEORY>SGP4</MEAN_ELEMENT_THEORY></metadata><data><meanElements><EPOCH>2025-08-09T02:11:33.385632</EPOCH><MEAN_MOTION>15.36863200</MEAN_MOTION><ECCENTRICITY>.0001959</ECCENTRICITY><INCLINATION>51.8780</INCLINATION><RA_OF_ASC_NODE>105.8092</RA_OF_ASC_NODE><ARG_OF_PERICENTER>253.2690</ARG_OF_PERICENTER><MEAN_ANOMALY>106.8082</MEAN_ANOMALY></meanElements><tleParameters><EPHEMERIS_TYPE>0</EPHEMERIS_TYPE><CLASSIFICATION_TYPE>U</CLASSIFICATION_TYPE><NORAD_CAT_ID>64513</NORAD_CAT_ID><ELEMENT_SET_NO>999</ELEMENT_SET_NO><REV_AT_EPOCH>841</REV_AT_EPOCH><BSTAR>.89172E-3</BSTAR><MEAN_MOTION_DOT>.32386E-3</MEAN_MOTION_DOT><MEAN_MOTION_DDOT>0</MEAN_MOTION_DDOT></tleParameters></data></segment></body></omm>
<omm id="CCSDS_OMM_VERS" version="2.0">
<header><CREATION_DATE/><ORIGINATOR/></header><body><segment><metadata><OBJECT_NAME>KUIPER-00054</OBJECT_NAME><OBJECT_ID>2025-134Q</OBJECT_ID><CENTER_NAME>EARTH</CENTER_NAME><REF_FRAME>TEME</REF_FRAME><TIME_SYSTEM>UTC</TIME_SYSTEM><MEAN_ELEMENT_THEORY>SGP4</MEAN_ELEMENT_THEORY></metadata><data><meanElements><EPOCH>2025-08-09T21:04:20.792352</EPOCH><MEAN_MOTION>15.36702368</MEAN_MOTION><ECCENTRICITY>.0002763</ECCENTRICITY><INCLINATION>51.8760</INCLINATION><RA_OF_ASC_NODE>102.0758</RA_OF_ASC_NODE><ARG_OF_PERICENTER>261.6182</ARG_OF_PERICENTER><MEAN_ANOMALY>98.4491</MEAN_ANOMALY></meanElements><tleParameters><EPHEMERIS_TYPE>0</EPHEMERIS_TYPE><CLASSIFICATION_TYPE>U</CLASSIFICATION_TYPE><NORAD_CAT_ID>64514</NORAD_CAT_ID><ELEMENT_SET_NO>999</ELEMENT_SET_NO><REV_AT_EPOCH>847</REV_AT_EPOCH><BSTAR>.16784E-2</BSTAR><MEAN_MOTION_DOT>.61218E-3</MEAN_MOTION_DOT><MEAN_MOTION_DDOT>0</MEAN_MOTION_DDOT></tleParameters></data></segment></body></omm>
<omm id="CCSDS_OMM_VERS" version="2.0">
<header><CREATION_DATE/><ORIGINATOR/></header><body><segment><metadata><OBJECT_NAME>KUIPER-00055</OBJECT_NAME><OBJECT_ID>2025-134R</OBJECT_ID><CENTER_NAME>EARTH</CENTER_NAME><REF_FRAME>TEME</REF_FRAME><TIME_SYSTEM>UTC</TIME_SYSTEM><MEAN_ELEMENT_THEORY>SGP4</MEAN_ELEMENT_THEORY></metadata><data><meanElements><EPOCH>2025-08-09T09:40:18.383520</EPOCH><MEAN_MOTION>15.37359326</MEAN_MOTION><ECCENTRICITY>.0000662</ECCENTRICITY><INCLINATION>51.8776</INCLINATION><RA_OF_ASC_NODE>104.1519</RA_OF_ASC_NODE><ARG_OF_PERICENTER>209.1841</ARG_OF_PERICENTER><MEAN_ANOMALY>150.9109</MEAN_ANOMALY></meanElements><tleParameters><EPHEMERIS_TYPE>0</EPHEMERIS_TYPE><CLASSIFICATION_TYPE>U</CLASSIFICATION_TYPE><NORAD_CAT_ID>64515</NORAD_CAT_ID><ELEMENT_SET_NO>999</ELEMENT_SET_NO><REV_AT_EPOCH>846</REV_AT_EPOCH><BSTAR>.82533E-3</BSTAR><MEAN_MOTION_DOT>.30426E-3</MEAN_MOTION_DOT><MEAN_MOTION_DDOT>0</MEAN_MOTION_DDOT></tleParameters></data></segment></body></omm>
<omm id="CCSDS_OMM_VERS" version="2.0">
<header><CREATION_DATE/><ORIGINATOR/></header><body><segment><metadata><OBJECT_NAME>KUIPER-00056</OBJECT_NAME><OBJECT_ID>2025-134S</OBJECT_ID><CENTER_NAME>EARTH</CENTER_NAME><REF_FRAME>TEME</REF_FRAME><TIME_SYSTEM>UTC</TIME_SYSTEM><MEAN_ELEMENT_THEORY>SGP4</MEAN_ELEMENT_THEORY></metadata><data><meanElements><EPOCH>2025-08-09T21:14:26.530656</EPOCH><MEAN_MOTION>15.36426532</MEAN_MOTION><ECCENTRICITY>.0003131</ECCENTRICITY><INCLINATION>51.8734</INCLINATION><RA_OF_ASC_NODE>102.1182</RA_OF_ASC_NODE><ARG_OF_PERICENTER>269.7720</ARG_OF_PERICENTER><MEAN_ANOMALY>90.2907</MEAN_ANOMALY></meanElements><tleParameters><EPHEMERIS_TYPE>0</EPHEMERIS_TYPE><CLASSIFICATION_TYPE>U</CLASSIFICATION_TYPE><NORAD_CAT_ID>64516</NORAD_CAT_ID><ELEMENT_SET_NO>999</ELEMENT_SET_NO><REV_AT_EPOCH>807</REV_AT_EPOCH><BSTAR>.12112E-2</BSTAR><MEAN_MOTION_DOT>.43576E-3</MEAN_MOTION_DOT><MEAN_MOTION_DDOT>0</MEAN_MOTION_DDOT></tleParameters></data></segment></body></omm>
<omm id="CCSDS_OMM_VERS" version="2.0">
<header><CREATION_DATE/><ORIGINATOR/></header><body><segment><metadata><OBJECT_NAME>KUIPER-00057</OBJECT_NAME><OBJECT_ID>2025-134T</OBJECT_ID><CENTER_NAME>EARTH</CENTER_NAME><REF_FRAME>TEME</REF_FRAME><TIME_SYSTEM>UTC</TIME_SYSTEM><MEAN_ELEMENT_THEORY>SGP4</MEAN_ELEMENT_THEORY></metadata><data><meanElements><EPOCH>2025-08-09T20:22:17.149440</EPOCH><MEAN_MOTION>15.34687574</MEAN_MOTION><ECCENTRICITY>.0006586</ECCENTRICITY><INCLINATION>51.8706</INCLINATION><RA_OF_ASC_NODE>102.6019</RA_OF_ASC_NODE><ARG_OF_PERICENTER>278.7154</ARG_OF_PERICENTER><MEAN_ANOMALY>81.3086</MEAN_ANOMALY></meanElements><tleParameters><EPHEMERIS_TYPE>0</EPHEMERIS_TYPE><CLASSIFICATION_TYPE>U</CLASSIFICATION_TYPE><NORAD_CAT_ID>64517</NORAD_CAT_ID><ELEMENT_SET_NO>999</ELEMENT_SET_NO><REV_AT_EPOCH>817</REV_AT_EPOCH><BSTAR>.13077E-2</BSTAR><MEAN_MOTION_DOT>.44542E-3</MEAN_MOTION_DOT><MEAN_MOTION_DDOT>0</MEAN_MOTION_DDOT></tleParameters></data></segment></body></omm>
<omm id="CCSDS_OMM_VERS" version="2.0">
<header><CREATION_DATE/><ORIGINATOR/></header><body><segment><metadata><OBJECT_NAME>KUIPER-00058</OBJECT_NAME><OBJECT_ID>2025-134U</OBJECT_ID><CENTER_NAME>EARTH</CENTER_NAME><REF_FRAME>TEME</REF_FRAME><TIME_SYSTEM>UTC</TIME_SYSTEM><MEAN_ELEMENT_THEORY>SGP4</MEAN_ELEMENT_THEORY></metadata><data><meanElements><EPOCH>2025-08-09T21:29:06.936288</EPOCH><MEAN_MOTION>15.36156619</MEAN_MOTION><ECCENTRICITY>.0004582</ECCENTRICITY><INCLINATION>51.8717</INCLINATION><RA_OF_ASC_NODE>102.1777</RA_OF_ASC_NODE><ARG_OF_PERICENTER>276.5716</ARG_OF_PERICENTER><MEAN_ANOMALY>83.4749</MEAN_ANOMALY></meanElements><tleParameters><EPHEMERIS_TYPE>0</EPHEMERIS_TYPE><CLASSIFICATION_TYPE>U</CLASSIFICATION_TYPE><NORAD_CAT_ID>64518</NORAD_CAT_ID><ELEMENT_SET_NO>999</ELEMENT_SET_NO><REV_AT_EPOCH>807</REV_AT_EPOCH><BSTAR>.84947E-3</BSTAR><MEAN_MOTION_DOT>.30131E-3</MEAN_MOTION_DOT><MEAN_MOTION_DDOT>0</MEAN_MOTION_DDOT></tleParameters></data></segment></body></omm>
<omm id="CCSDS_OMM_VERS" version="2.0">
<header><CREATION_DATE/><ORIGINATOR/></header><body><segment><metadata><OBJECT_NAME>KUIPER-00059</OBJECT_NAME><OBJECT_ID>2025-134V</OBJECT_ID><CENTER_NAME>EARTH</CENTER_NAME><REF_FRAME>TEME</REF_FRAME><TIME_SYSTEM>UTC</TIME_SYSTEM><MEAN_ELEMENT_THEORY>SGP4</MEAN_ELEMENT_THEORY></metadata><data><meanElements><EPOCH>2025-08-09T20:39:14.075712</EPOCH><MEAN_MOTION>15.37252568</MEAN_MOTION><ECCENTRICITY>.0001422</ECCENTRICITY><INCLINATION>51.8781</INCLINATION><RA_OF_ASC_NODE>101.9638</RA_OF_ASC_NODE><ARG_OF_PERICENTER>193.6564</ARG_OF_PERICENTER><MEAN_ANOMALY>166.4384</MEAN_ANOMALY></meanElements><tleParameters><EPHEMERIS_TYPE>0</EPHEMERIS_TYPE><CLASSIFICATION_TYPE>U</CLASSIFICATION_TYPE><NORAD_CAT_ID>64519</NORAD_CAT_ID><ELEMENT_SET_NO>999</ELEMENT_SET_NO><REV_AT_EPOCH>806</REV_AT_EPOCH><BSTAR>.10808E-2</BSTAR><MEAN_MOTION_DOT>.39876E-3</MEAN_MOTION_DOT><MEAN_MOTION_DDOT>0</MEAN_MOTION_DDOT></tleParameters></data></segment></body></omm>
<omm id="CCSDS_OMM_VERS" version="2.0">
<header><CREATION_DATE/><ORIGINATOR/></header><body><segment><metadata><OBJECT_NAME>KUIPER-00060</OBJECT_NAME><OBJECT_ID>2025-134W</OBJECT_ID><CENTER_NAME>EARTH</CENTER_NAME><REF_FRAME>TEME</REF_FRAME><TIME_SYSTEM>UTC</TIME_SYSTEM><MEAN_ELEMENT_THEORY>SGP4</MEAN_ELEMENT_THEORY></metadata><data><meanElements><EPOCH>2025-08-09T20:48:24.566400</EPOCH><MEAN_MOTION>15.37106779</MEAN_MOTION><ECCENTRICITY>.000219</ECCENTRICITY><INCLINATION>51.8768</INCLINATION><RA_OF_ASC_NODE>102.0085</RA_OF_ASC_NODE><ARG_OF_PERICENTER>216.4934</ARG_OF_PERICENTER><MEAN_ANOMALY>143.5904</MEAN_ANOMALY></meanElements><tleParameters><EPHEMERIS_TYPE>0</EPHEMERIS_TYPE><CLASSIFICATION_TYPE>U</CLASSIFICATION_TYPE><NORAD_CAT_ID>64520</NORAD_CAT_ID><ELEMENT_SET_NO>999</ELEMENT_SET_NO><REV_AT_EPOCH>807</REV_AT_EPOCH><BSTAR>.16192E-2</BSTAR><MEAN_MOTION_DOT>.59812E-3</MEAN_MOTION_DOT><MEAN_MOTION_DDOT>0</MEAN_MOTION_DDOT></tleParameters></data></segment></body></omm>

</ndm>
